{"fetched_at":"2026-03-29T02:12:04Z","count":15717,"tles":[{"name":"STARLINK-32708","line1":"1 62495U 25003J   26087.54593380  .00026294  00000+0  96081-3 0  9995","line2":"2 62495  42.9984 182.6287 0001036 255.1846 104.8890 15.27607578 69439","category":"Starlink"}]}