{
  "norad_id": 62495,
  "name": "STARLINK-32708",
  "history": [
    {
      "epoch": "2026-03-28T13:06:08.680320Z",
      "apogee_km": 483.67794665271686,
      "perigee_km": 482.2550910049831,
      "latitude_deg": -5.1201738553698626e-05,
      "longitude_deg": 160.12764469742083,
      "height_km": 482.9245957370137,
      "semi_major_axis_km": 6861.10351882885,
      "eccentricity": 0.00010369,
      "inclination_deg": 42.9984,
      "raan_deg": 182.6287,
      "arg_perigee_deg": 255.1846,
      "mean_anomaly_deg": 104.889,
      "mean_motion_rev_day": 15.27607578
    }
  ]
}